{
  "norad_id": 63754,
  "name": "STARLINK-11662 [DTC]",
  "history": [
    {
      "epoch": "2026-03-28T06:01:02.504352Z",
      "apogee_km": 357.89589140314365,
      "perigee_km": 354.4250344907414,
      "latitude_deg": -7.361841865485698e-06,
      "longitude_deg": -95.47810261208039,
      "height_km": 356.1202442769603,
      "semi_major_axis_km": 6734.297462946943,
      "eccentricity": 0.0002577,
      "inclination_deg": 43.0023,
      "raan_deg": 180.4562,
      "arg_perigee_deg": 263.8395,
      "mean_anomaly_deg": 96.2179,
      "mean_motion_rev_day": 15.70957074
    },
    {
      "epoch": "2026-03-29T04:54:25.954848Z",
      "apogee_km": 358.3108431671699,
      "perigee_km": 353.3371395789418,
      "latitude_deg": -6.392639862481364e-06,
      "longitude_deg": -85.51536479415745,
      "height_km": 354.39592643686655,
      "semi_major_axis_km": 6733.960991373056,
      "eccentricity": 0.0003693,
      "inclination_deg": 43.004,
      "raan_deg": 174.7067,
      "arg_perigee_deg": 298.9149,
      "mean_anomaly_deg": 61.1348,
      "mean_motion_rev_day": 15.71074818
    },
    {
      "epoch": "2026-03-30T05:19:23.831040Z",
      "apogee_km": 357.3800807958032,
      "perigee_km": 355.4836262066565,
      "latitude_deg": -3.58349210339069e-05,
      "longitude_deg": -98.89087896934336,
      "height_km": 356.0452991831429,
      "semi_major_axis_km": 6734.56885350123,
      "eccentricity": 0.0001408,
      "inclination_deg": 43.0009,
      "raan_deg": 168.5751,
      "arg_perigee_deg": 279.6603,
      "mean_anomaly_deg": 80.4105,
      "mean_motion_rev_day": 15.70862115
    },
    {
      "epoch": "2026-03-30T05:19:23.831904Z",
      "apogee_km": 357.37974406735975,
      "perigee_km": 355.48396293509904,
      "latitude_deg": -3.9711547798833936e-05,
      "longitude_deg": -98.89088671289339,
      "height_km": 356.04535568016536,
      "semi_major_axis_km": 6734.56885350123,
      "eccentricity": 0.00014075,
      "inclination_deg": 43.0009,
      "raan_deg": 168.5751,
      "arg_perigee_deg": 279.6603,
      "mean_anomaly_deg": 80.4105,
      "mean_motion_rev_day": 15.70862115
    },
    {
      "epoch": "2026-03-30T14:28:45.676416Z",
      "apogee_km": 357.49423225705686,
      "perigee_km": 355.30200638501447,
      "latitude_deg": 1.4410771087509536e-06,
      "longitude_deg": 121.09381246158372,
      "height_km": 355.9781531912343,
      "semi_major_axis_km": 6734.535119321035,
      "eccentricity": 0.00016276,
      "inclination_deg": 43.0012,
      "raan_deg": 166.2768,
      "arg_perigee_deg": 280.1275,
      "mean_anomaly_deg": 79.9409,
      "mean_motion_rev_day": 15.70873918
    },
    {
      "epoch": "2026-03-31T20:59:58.048224Z",
      "apogee_km": 356.90818319563914,
      "perigee_km": 355.8955779295584,
      "latitude_deg": -3.608739002364126e-05,
      "longitude_deg": 14.372308827194018,
      "height_km": 356.15296587866885,
      "semi_major_axis_km": 6734.538880562598,
      "eccentricity": 7.518e-05,
      "inclination_deg": 43.0004,
      "raan_deg": 158.6103,
      "arg_perigee_deg": 272.3594,
      "mean_anomaly_deg": 87.7187,
      "mean_motion_rev_day": 15.70872602
    },
    {
      "epoch": "2026-04-02T20:18:19.147680Z",
      "apogee_km": 358.46853817403644,
      "perigee_km": 353.7787990444167,
      "latitude_deg": 4.11544442736027e-05,
      "longitude_deg": 10.9625961181921,
      "height_km": 354.55721488391794,
      "semi_major_axis_km": 6734.260668609227,
      "eccentricity": 0.0003482,
      "inclination_deg": 42.9989,
      "raan_deg": 146.7312,
      "arg_perigee_deg": 55.3209,
      "mean_anomaly_deg": 304.7987,
      "mean_motion_rev_day": 15.70969949
    },
    {
      "epoch": "2026-04-02T20:18:19.148544Z",
      "apogee_km": 358.46833614621755,
      "perigee_km": 353.7790010722374,
      "latitude_deg": 4.309266167682969e-05,
      "longitude_deg": 10.962594575224289,
      "height_km": 354.55732981735696,
      "semi_major_axis_km": 6734.260668609227,
      "eccentricity": 0.00034817,
      "inclination_deg": 42.9989,
      "raan_deg": 146.7312,
      "arg_perigee_deg": 55.3209,
      "mean_anomaly_deg": 304.7987,
      "mean_motion_rev_day": 15.70969949
    },
    {
      "epoch": "2026-04-03T10:02:19.367808Z",
      "apogee_km": 356.4934515188579,
      "perigee_km": 356.18285752473275,
      "latitude_deg": -2.693225321821319e-05,
      "longitude_deg": 160.94649591738224,
      "height_km": 356.0024864730981,
      "semi_major_axis_km": 6734.475154521795,
      "eccentricity": 2.306e-05,
      "inclination_deg": 42.9988,
      "raan_deg": 143.2801,
      "arg_perigee_deg": 313.4826,
      "mean_anomaly_deg": 46.6022,
      "mean_motion_rev_day": 15.70894899
    },
    {
      "epoch": "2026-04-04T05:52:37.912800Z",
      "apogee_km": 357.2997708404746,
      "perigee_km": 355.70985660109,
      "latitude_deg": -4.1555612426087576e-05,
      "longitude_deg": -142.427928369529,
      "height_km": 356.47470965137387,
      "semi_major_axis_km": 6734.641813720782,
      "eccentricity": 0.00011804,
      "inclination_deg": 42.9993,
      "raan_deg": 138.2977,
      "arg_perigee_deg": 255.5946,
      "mean_anomaly_deg": 104.479,
      "mean_motion_rev_day": 15.70836588
    },
    {
      "epoch": "2026-04-05T12:23:50.129952Z",
      "apogee_km": 357.831501089001,
      "perigee_km": 354.87519451612206,
      "latitude_deg": -2.6772692179101895e-05,
      "longitude_deg": 110.85366661349029,
      "height_km": 355.68683431548453,
      "semi_major_axis_km": 6734.490347802561,
      "eccentricity": 0.00021949,
      "inclination_deg": 43.0003,
      "raan_deg": 130.6336,
      "arg_perigee_deg": 287.3015,
      "mean_anomaly_deg": 72.7612,
      "mean_motion_rev_day": 15.70889583
    }
  ]
}